{"fetched_at":"2026-07-11T09:23:59.140Z","source":"https://celestrak.org/NORAD/elements/gp.php?GROUP=planet&FORMAT=JSON","constellation":"superdove","records":[{"OBJECT_NAME":"FLOCK 4H-15","OBJECT_ID":"2025-276BE","EPOCH":"2026-07-11T03:32:39.524352","CLASSIFICATION_TYPE":"U","MEAN_MOTION":15.19850748,"ECCENTRICITY":0.0002714,"INCLINATION":97.4215,"RA_OF_ASC_NODE":265.2415,"ARG_OF_PERICENTER":297.6549,"MEAN_ANOMALY":62.441,"EPHEMERIS_TYPE":0,"NORAD_CAT_ID":66718,"ELEMENT_SET_NO":999,"REV_AT_EPOCH":3405,"BSTAR":0.00020376,"MEAN_MOTION_DOT":0.00004302,"MEAN_MOTION_DDOT":0},{"OBJECT_NAME":"FLOCK 4H-16","OBJECT_ID":"2025-276BF","EPOCH":"2026-07-10T23:44:48.259680","CLASSIFICATION_TYPE":"U","MEAN_MOTION":15.2011718,"ECCENTRICITY":0.0002708,"INCLINATION":97.4233,"RA_OF_ASC_NODE":265.194,"ARG_OF_PERICENTER":281.6257,"MEAN_ANOMALY":78.4674,"EPHEMERIS_TYPE":0,"NORAD_CAT_ID":66719,"ELEMENT_SET_NO":999,"REV_AT_EPOCH":3403,"BSTAR":0.00018383,"MEAN_MOTION_DOT":0.00003904,"MEAN_MOTION_DDOT":0},{"OBJECT_NAME":"FLOCK 4H-18","OBJECT_ID":"2025-276BH","EPOCH":"2026-07-10T03:21:07.997760","CLASSIFICATION_TYPE":"U","MEAN_MOTION":15.20051594,"ECCENTRICITY":0.00024678,"INCLINATION":97.4173,"RA_OF_ASC_NODE":264.1757,"ARG_OF_PERICENTER":322.3495,"MEAN_ANOMALY":37.7567,"EPHEMERIS_TYPE":0,"NORAD_CAT_ID":66721,"ELEMENT_SET_NO":999,"REV_AT_EPOCH":3390,"BSTAR":0.00023365955,"MEAN_MOTION_DOT":0.00004972,"MEAN_MOTION_DDOT":0},{"OBJECT_NAME":"FLOCK 4H-19","OBJECT_ID":"2025-276BJ","EPOCH":"2026-07-10T23:57:08.978112","CLASSIFICATION_TYPE":"U","MEAN_MOTION":15.21256326,"ECCENTRICITY":0.0002052,"INCLINATION":97.4174,"RA_OF_ASC_NODE":265.4746,"ARG_OF_PERICENTER":158.815,"MEAN_ANOMALY":201.3171,"EPHEMERIS_TYPE":0,"NORAD_CAT_ID":66722,"ELEMENT_SET_NO":999,"REV_AT_EPOCH":3335,"BSTAR":0.00015828,"MEAN_MOTION_DOT":0.00003467,"MEAN_MOTION_DDOT":0},{"OBJECT_NAME":"FLOCK 4H-20","OBJECT_ID":"2025-276BK","EPOCH":"2026-07-10T14:32:36.659040","CLASSIFICATION_TYPE":"U","MEAN_MOTION":15.21410125,"ECCENTRICITY":0.0002425,"INCLINATION":97.4213,"RA_OF_ASC_NODE":265.1913,"ARG_OF_PERICENTER":184.715,"MEAN_ANOMALY":175.4063,"EPHEMERIS_TYPE":0,"NORAD_CAT_ID":66723,"ELEMENT_SET_NO":999,"REV_AT_EPOCH":3325,"BSTAR":0.00020722,"MEAN_MOTION_DOT":0.00004581,"MEAN_MOTION_DDOT":0},{"OBJECT_NAME":"FLOCK 4H-21","OBJECT_ID":"2025-276BL","EPOCH":"2026-07-10T10:31:45.836544","CLASSIFICATION_TYPE":"U","MEAN_MOTION":15.20995885,"ECCENTRICITY":0.00022167,"INCLINATION":97.4175,"RA_OF_ASC_NODE":264.8555,"ARG_OF_PERICENTER":183.2888,"MEAN_ANOMALY":176.8333,"EPHEMERIS_TYPE":0,"NORAD_CAT_ID":66724,"ELEMENT_SET_NO":999,"REV_AT_EPOCH":3322,"BSTAR":0.00021142327,"MEAN_MOTION_DOT":0.00004619,"MEAN_MOTION_DDOT":0},{"OBJECT_NAME":"FLOCK 4H-22","OBJECT_ID":"2025-276BM","EPOCH":"2026-07-11T04:56:04.386048","CLASSIFICATION_TYPE":"U","MEAN_MOTION":15.20488105,"ECCENTRICITY":0.0001234,"INCLINATION":97.4167,"RA_OF_ASC_NODE":265.3247,"ARG_OF_PERICENTER":329.567,"MEAN_ANOMALY":30.5493,"EPHEMERIS_TYPE":0,"NORAD_CAT_ID":66725,"ELEMENT_SET_NO":999,"REV_AT_EPOCH":3407,"BSTAR":0.000214,"MEAN_MOTION_DOT":0.00004607,"MEAN_MOTION_DDOT":0},{"OBJECT_NAME":"FLOCK 4H-23","OBJECT_ID":"2025-276BN","EPOCH":"2026-07-10T00:10:29.137152","CLASSIFICATION_TYPE":"U","MEAN_MOTION":15.20029153,"ECCENTRICITY":0.00027951,"INCLINATION":97.4237,"RA_OF_ASC_NODE":264.2289,"ARG_OF_PERICENTER":273.6935,"MEAN_ANOMALY":86.398,"EPHEMERIS_TYPE":0,"NORAD_CAT_ID":66726,"ELEMENT_SET_NO":999,"REV_AT_EPOCH":3388,"BSTAR":0.00023781263,"MEAN_MOTION_DOT":0.00005059,"MEAN_MOTION_DDOT":0},{"OBJECT_NAME":"FLOCK 4H-24","OBJECT_ID":"2025-276BP","EPOCH":"2026-07-09T03:16:51.366432","CLASSIFICATION_TYPE":"U","MEAN_MOTION":15.20127906,"ECCENTRICITY":0.00024156,"INCLINATION":97.423,"RA_OF_ASC_NODE":263.4008,"ARG_OF_PERICENTER":303.3331,"MEAN_ANOMALY":56.7673,"EPHEMERIS_TYPE":0,"NORAD_CAT_ID":66727,"ELEMENT_SET_NO":999,"REV_AT_EPOCH":3375,"BSTAR":0.00021482611,"MEAN_MOTION_DOT":0.00004576,"MEAN_MOTION_DDOT":0},{"OBJECT_NAME":"FLOCK 4H-25","OBJECT_ID":"2025-276BQ","EPOCH":"2026-07-10T10:57:59.034528","CLASSIFICATION_TYPE":"U","MEAN_MOTION":15.20907691,"ECCENTRICITY":0.00015991,"INCLINATION":97.419,"RA_OF_ASC_NODE":264.8646,"ARG_OF_PERICENTER":130.2881,"MEAN_ANOMALY":229.8494,"EPHEMERIS_TYPE":0,"NORAD_CAT_ID":66728,"ELEMENT_SET_NO":999,"REV_AT_EPOCH":3325,"BSTAR":0.00018358176,"MEAN_MOTION_DOT":0.00003991,"MEAN_MOTION_DDOT":0},{"OBJECT_NAME":"FLOCK 4H-26","OBJECT_ID":"2025-276BR","EPOCH":"2026-07-11T03:27:35.615808","CLASSIFICATION_TYPE":"U","MEAN_MOTION":15.19869883,"ECCENTRICITY":0.0003192,"INCLINATION":97.4187,"RA_OF_ASC_NODE":265.1623,"ARG_OF_PERICENTER":286.8316,"MEAN_ANOMALY":73.2568,"EPHEMERIS_TYPE":0,"NORAD_CAT_ID":66729,"ELEMENT_SET_NO":999,"REV_AT_EPOCH":3405,"BSTAR":0.00019908,"MEAN_MOTION_DOT":0.00004204,"MEAN_MOTION_DDOT":0},{"OBJECT_NAME":"FLOCK 4H-27","OBJECT_ID":"2025-276BS","EPOCH":"2026-07-10T22:44:32.739360","CLASSIFICATION_TYPE":"U","MEAN_MOTION":15.20735636,"ECCENTRICITY":0.0001358,"INCLINATION":97.4165,"RA_OF_ASC_NODE":265.2033,"ARG_OF_PERICENTER":126.0462,"MEAN_ANOMALY":234.0899,"EPHEMERIS_TYPE":0,"NORAD_CAT_ID":66730,"ELEMENT_SET_NO":999,"REV_AT_EPOCH":3404,"BSTAR":0.00020843,"MEAN_MOTION_DOT":0.00004517,"MEAN_MOTION_DDOT":0},{"OBJECT_NAME":"FLOCK 4H-29","OBJECT_ID":"2025-276BU","EPOCH":"2026-07-10T03:16:41.967840","CLASSIFICATION_TYPE":"U","MEAN_MOTION":15.20001851,"ECCENTRICITY":0.00018186,"INCLINATION":97.4166,"RA_OF_ASC_NODE":264.1548,"ARG_OF_PERICENTER":318.5568,"MEAN_ANOMALY":41.5529,"EPHEMERIS_TYPE":0,"NORAD_CAT_ID":66732,"ELEMENT_SET_NO":999,"REV_AT_EPOCH":3390,"BSTAR":0.00022870497,"MEAN_MOTION_DOT":0.00004858,"MEAN_MOTION_DDOT":0},{"OBJECT_NAME":"FLOCK 4H-30","OBJECT_ID":"2025-276BV","EPOCH":"2026-07-11T04:22:15.267360","CLASSIFICATION_TYPE":"U","MEAN_MOTION":15.2013387,"ECCENTRICITY":0.0002641,"INCLINATION":97.4228,"RA_OF_ASC_NODE":265.3857,"ARG_OF_PERICENTER":288.492,"MEAN_ANOMALY":71.6028,"EPHEMERIS_TYPE":0,"NORAD_CAT_ID":66733,"ELEMENT_SET_NO":999,"REV_AT_EPOCH":3406,"BSTAR":0.00017732,"MEAN_MOTION_DOT":0.00003766,"MEAN_MOTION_DDOT":0},{"OBJECT_NAME":"FLOCK 4H-31","OBJECT_ID":"2025-276BW","EPOCH":"2026-07-11T03:16:48.644832","CLASSIFICATION_TYPE":"U","MEAN_MOTION":15.19910631,"ECCENTRICITY":0.0002146,"INCLINATION":97.4165,"RA_OF_ASC_NODE":265.1052,"ARG_OF_PERICENTER":304.0766,"MEAN_ANOMALY":56.0265,"EPHEMERIS_TYPE":0,"NORAD_CAT_ID":66734,"ELEMENT_SET_NO":999,"REV_AT_EPOCH":3405,"BSTAR":0.00019187,"MEAN_MOTION_DOT":0.00004054,"MEAN_MOTION_DDOT":0},{"OBJECT_NAME":"FLOCK 4H-32","OBJECT_ID":"2025-276BX","EPOCH":"2026-07-10T00:08:19.664160","CLASSIFICATION_TYPE":"U","MEAN_MOTION":15.20021053,"ECCENTRICITY":0.00029757,"INCLINATION":97.4219,"RA_OF_ASC_NODE":264.1853,"ARG_OF_PERICENTER":290.7711,"MEAN_ANOMALY":69.3205,"EPHEMERIS_TYPE":0,"NORAD_CAT_ID":66735,"ELEMENT_SET_NO":999,"REV_AT_EPOCH":3388,"BSTAR":0.00022772513,"MEAN_MOTION_DOT":0.0000484,"MEAN_MOTION_DDOT":0}]}
