FLOCK 4H-15             
1 66718U 25276BE  26192.14767968  .00004302  00000+0  20376-3 0  9997
2 66718  97.4215 265.2415 0002714 297.6549  62.4410 15.19850748 34056
FLOCK 4H-16             
1 66719U 25276BF  26191.98944745  .00003904  00000+0  18383-3 0  9991
2 66719  97.4233 265.1940 0002708 281.6257  78.4674 15.20117180 34036
FLOCK 4H-18             
1 66721U 25276BH  26191.13967590  .00004972  00000+0  23366-3 0  9997
2 66721  97.4173 264.1757 0002467 322.3495  37.7567 15.20051594 33906
FLOCK 4H-19             
1 66722U 25276BJ  26191.99802058  .00003467  00000+0  15828-3 0  9991
2 66722  97.4174 265.4746 0002052 158.8150 201.3171 15.21256326 33350
FLOCK 4H-20             
1 66723U 25276BK  26191.60597985  .00004581  00000+0  20722-3 0  9997
2 66723  97.4213 265.1913 0002425 184.7150 175.4063 15.21410125 33259
FLOCK 4H-21             
1 66724U 25276BL  26191.43872496  .00004619  00000+0  21142-3 0  9991
2 66724  97.4175 264.8555 0002216 183.2888 176.8333 15.20995885 33227
FLOCK 4H-22             
1 66725U 25276BM  26192.20560632  .00004607  00000+0  21400-3 0  9998
2 66725  97.4167 265.3247 0001234 329.5670  30.5493 15.20488105 34075
FLOCK 4H-23             
1 66726U 25276BN  26191.00728168  .00005059  00000+0  23781-3 0  9992
2 66726  97.4237 264.2289 0002795 273.6935  86.3980 15.20029153 33886
FLOCK 4H-24             
1 66727U 25276BP  26190.13670563  .00004576  00000+0  21483-3 0  9991
2 66727  97.4230 263.4008 0002415 303.3331  56.7673 15.20127906 33751
FLOCK 4H-25             
1 66728U 25276BQ  26191.45693327  .00003991  00000+0  18358-3 0  9998
2 66728  97.4190 264.8646 0001599 130.2881 229.8494 15.20907691 33255
FLOCK 4H-26             
1 66729U 25276BR  26192.14416222  .00004204  00000+0  19908-3 0  9993
2 66729  97.4187 265.1623 0003192 286.8316  73.2568 15.19869883 34053
FLOCK 4H-27             
1 66730U 25276BS  26191.94760115  .00004517  00000+0  20843-3 0  9992
2 66730  97.4165 265.2033 0001358 126.0462 234.0899 15.20735636 34049
FLOCK 4H-29             
1 66732U 25276BU  26191.13659685  .00004858  00000+0  22870-3 0  9994
2 66732  97.4166 264.1548 0001818 318.5568  41.5529 15.20001851 33907
FLOCK 4H-30             
1 66733U 25276BV  26192.18212115  .00003766  00000+0  17732-3 0  9992
2 66733  97.4228 265.3857 0002641 288.4920  71.6028 15.20133870 34068
FLOCK 4H-31             
1 66734U 25276BW  26192.13667413  .00004054  00000+0  19187-3 0  9990
2 66734  97.4165 265.1052 0002146 304.0766  56.0265 15.19910631 34052
FLOCK 4H-32             
1 66735U 25276BX  26191.00578315  .00004840  00000+0  22773-3 0  9996
2 66735  97.4219 264.1853 0002975 290.7711  69.3205 15.20021053 33886
